EYESAT A (AO-27)        
1 22825U 93061C   26194.15132456  .00000041  00000+0  32598-4 0  9992
2 22825  98.6869 261.5539 0008875  31.5428 328.6285 14.30948752710712
ITAMSAT (IO-26)         
1 22826U 93061D   26194.12298664  .00000033  00000+0  29299-4 0  9999
2 22826  98.6817 261.4457 0009085  15.3060 344.8396 14.31376322711027
RADIO ROSTO (RS15)      
1 23439U 94085A   26194.54532953 -.00000019  00000+0  67664-3 0  9997
2 23439  64.8158 260.5892 0156847 359.0113   1.0481 11.27583538298871
JAS-2 (FO-29)           
1 24278U 96046B   26194.55731462  .00000020  00000+0  55297-4 0  9996
2 24278  98.5220  39.8146 0350433  28.1834 333.7792 13.53275527476737
FORTE                   
1 24920U 97047A   26194.64341478  .00000049  00000+0  43172-4 0  9996
2 24920  69.9547 314.2622 0024373 245.3441 114.5143 14.27955045502469
TECHSAT 1B (GO-32)      
1 25397U 98043D   26194.54595469  .00000016  00000+0  27074-4 0  9999
2 25397  99.0084 187.9711 0002146 116.9543 243.1854 14.24433163455084
ISS (ZARYA)             
1 25544U 98067A   26194.31484285  .00004029  00000+0  81266-4 0  9998
2 25544  51.6305 170.7871 0006687 290.3592  69.6678 15.48997295575806
IMAGE                   
1 26113U 00017A   26191.39817865 -.00000042  00000+0  00000+0 0  9992
2 26113  94.2468 315.6762 7416054 285.1805   9.7435  1.68666826161896
CLUSTER II-FM7 (SAMBA)  
1 26410U 00041A   26192.68021872  .00012833  00000+0  00000+0 0  9997
2 26410 149.8437  55.3938 9082311 272.8334 359.6328  0.44896530 20420
CLUSTER II-FM8 (TANGO)  
1 26464U 00045B   26193.20008498  .00013279  00000+0  00000+0 0  9993
2 26464 150.0475  56.7154 9087598 274.0139   2.1073  0.44413276 20428
ODIN                    
1 26702U 01007A   26194.60601347  .00271366  28507-4  97965-3 0  9994
2 26702  97.3734 237.4616 0004839 144.0406 216.1193 15.88613949393578
OMNI-M1                 
1 26857U 01026A   26194.21749145  .00000018  00000+0  00000+0 0  9999
2 26857  44.8246 239.2639 0013522  57.5126 302.6838  3.92401929206592
PCSAT (NO-44)           
1 26931U 01043C   26194.42110003  .00000022  00000+0  39237-4 0  9993
2 26931  67.0493 176.4180 0005942 266.4471  93.5951 14.31964599294209
PROBA-1                 
1 26958U 01049B   26194.61987457  .00001672  00000+0  11058-3 0  9996
2 26958  97.9604 204.0764 0055882  34.9336 325.5537 15.07612925347604
SAUDISAT 1C (SO-50)     
1 27607U 02058C   26194.65572767  .00000372  00000+0  61967-4 0  9998
2 27607  64.5517  47.0888 0074573 257.5598 101.7156 14.83096658268382
CORIOLIS                
1 27640U 03001A   26194.62151903  .00000053  00000+0  45514-4 0  9992
2 27640  98.7134 201.1031 0014839 133.3650 226.8765 14.19951526217972
CUTE-1 (CO-55)          
1 27844U 03031E   26194.45028445  .00000157  00000+0  86848-4 0  9996
2 27844  98.6742 202.6793 0010803 107.1223 253.1140 14.24350896195418
CUBESAT XI-IV (CO-57)   
1 27848U 03031J   26194.52222380  .00000129  00000+0  75510-4 0  9995
2 27848  98.6773 202.4416 0010486 123.7879 236.4299 14.23634004195126
MOZHAETS 4 (RS22)       
1 27939U 03042A   26194.62856855  .00000659  00000+0  10965-3 0  9999
2 27939  98.3472  19.7361 0011113 178.1971 247.0000 14.73513085219443
